{
  "type": "FeatureCollection",
  "features": [
    {
      "type": "Feature",
      "properties": {
        "norad_id": 34540,
        "name": "IRIDIUM 33 DEB",
        "group": "iridium-33-debris",
        "lat": -34.01748936520598,
        "lon": 132.79062998966953,
        "alt_km": 642.0351074184455,
        "timestamp": "2025-12-06T20:37:56.460332+00:00",
        "meta_object_name": "IRIDIUM 33 DEB",
        "meta_object_id": "1997-051JH",
        "meta_epoch": "2025-12-06T08:57:30.781152",
        "meta_mean_motion": 14.75115049,
        "meta_eccentricity": 0.00153471,
        "meta_inclination": 86.3101,
        "meta_ra_of_asc_node": 310.5165,
        "meta_arg_of_pericenter": 182.2807,
        "meta_mean_anomaly": 330.2602,
        "meta_ephemeris_type": 0,
        "meta_classification_type": "U",
        "meta_norad_cat_id": 34540,
        "meta_element_set_no": 999,
        "meta_rev_at_epoch": 88927,
        "meta_bstar": 0.0029561782,
        "meta_mean_motion_dot": 0.00020031,
        "meta_mean_motion_ddot": 0,
        "tle_line1": "1 34540U 97051JH  25340.37327293  .00020031  00000+0  29562-2 0  9999",
        "tle_line2": "2 34540  86.3101 310.5165 0015347 182.2807 330.2602 14.75115049889273"
      },
      "geometry": {
        "type": "Point",
        "coordinates": [
          132.79062998966953,
          -34.01748936520598
        ]
      }
    },
    {
      "type": "Feature",
      "properties": {
        "norad_id": 34648,
        "name": "IRIDIUM 33 DEB",
        "group": "iridium-33-debris",
        "lat": -86.30167896902454,
        "lon": -178.15310747189793,
        "alt_km": 771.5064324220093,
        "timestamp": "2025-12-06T20:37:56.460345+00:00",
        "meta_object_name": "IRIDIUM 33 DEB",
        "meta_object_id": "1997-051JZ",
        "meta_epoch": "2025-12-05T14:25:00.080832",
        "meta_mean_motion": 14.11133288,
        "meta_eccentricity": 0.01851844,
        "meta_inclination": 86.391,
        "meta_ra_of_asc_node": 284.8271,
        "meta_arg_of_pericenter": 321.0123,
        "meta_mean_anomaly": 37.7826,
        "meta_ephemeris_type": 0,
        "meta_classification_type": "U",
        "meta_norad_cat_id": 34648,
        "meta_element_set_no": 999,
        "meta_rev_at_epoch": 84860,
        "meta_bstar": 0.014281449,
        "meta_mean_motion_dot": 0.00030319,
        "meta_mean_motion_ddot": 0,
        "tle_line1": "1 34648U 97051JZ  25339.60069538  .00030319  00000+0  14281-1 0  9998",
        "tle_line2": "2 34648  86.3910 284.8271 0185184 321.0123  37.7826 14.11133288848606"
      },
      "geometry": {
        "type": "Point",
        "coordinates": [
          -178.15310747189793,
          -86.30167896902454
        ]
      }
    },
    {
      "type": "Feature",
      "properties": {
        "norad_id": 34651,
        "name": "IRIDIUM 33 DEB",
        "group": "iridium-33-debris",
        "lat": 24.63762084974498,
        "lon": 144.78607173429842,
        "alt_km": 902.595741468037,
        "timestamp": "2025-12-06T20:37:56.460358+00:00",
        "meta_object_name": "IRIDIUM 33 DEB",
        "meta_object_id": "1997-051KC",
        "meta_epoch": "2025-12-06T10:24:25.220736",
        "meta_mean_motion": 14.25653939,
        "meta_eccentricity": 0.01419204,
        "meta_inclination": 86.2832,
        "meta_ra_of_asc_node": 143.2589,
        "meta_arg_of_pericenter": 223.9554,
        "meta_mean_anomaly": 135.0281,
        "meta_ephemeris_type": 0,
        "meta_classification_type": "U",
        "meta_norad_cat_id": 34651,
        "meta_element_set_no": 999,
        "meta_rev_at_epoch": 85806,
        "meta_bstar": 0.0058023544,
        "meta_mean_motion_dot": 0.00015319,
        "meta_mean_motion_ddot": 0,
        "tle_line1": "1 34651U 97051KC  25340.43362524  .00015319  00000+0  58024-2 0  9993",
        "tle_line2": "2 34651  86.2832 143.2589 0141920 223.9554 135.0281 14.25653939858063"
      },
      "geometry": {
        "type": "Point",
        "coordinates": [
          144.78607173429842,
          24.63762084974498
        ]
      }
    },
    {
      "type": "Feature",
      "properties": {
        "norad_id": 34652,
        "name": "IRIDIUM 33 DEB",
        "group": "iridium-33-debris",
        "lat": 28.76957137668621,
        "lon": -15.361187490621893,
        "alt_km": 678.927804677739,
        "timestamp": "2025-12-06T20:37:56.460369+00:00",
        "meta_object_name": "IRIDIUM 33 DEB",
        "meta_object_id": "1997-051KD",
        "meta_epoch": "2025-12-06T11:20:22.742016",
        "meta_mean_motion": 14.61968403,
        "meta_eccentricity": 0.00265973,
        "meta_inclination": 86.3308,
        "meta_ra_of_asc_node": 342.792,
        "meta_arg_of_pericenter": 320.8113,
        "meta_mean_anomaly": 191.3091,
        "meta_ephemeris_type": 0,
        "meta_classification_type": "U",
        "meta_norad_cat_id": 34652,
        "meta_element_set_no": 999,
        "meta_rev_at_epoch": 88392,
        "meta_bstar": 0.0017876249,
        "meta_mean_motion_dot": 9.024e-05,
        "meta_mean_motion_ddot": 0,
        "tle_line1": "1 34652U 97051KD  25340.47248544  .00009024  00000+0  17876-2 0  9999",
        "tle_line2": "2 34652  86.3308 342.7920 0026597 320.8113 191.3091 14.61968403883920"
      },
      "geometry": {
        "type": "Point",
        "coordinates": [
          -15.361187490621893,
          28.76957137668621
        ]
      }
    },
    {
      "type": "Feature",
      "properties": {
        "norad_id": 34690,
        "name": "IRIDIUM 33 DEB",
        "group": "iridium-33-debris",
        "lat": 37.909931660405036,
        "lon": 42.37387490770166,
        "alt_km": 698.3924176901237,
        "timestamp": "2025-12-06T20:37:56.460379+00:00",
        "meta_object_name": "IRIDIUM 33 DEB",
        "meta_object_id": "1997-051KM",
        "meta_epoch": "2025-12-06T10:38:22.523136",
        "meta_mean_motion": 14.55060659,
        "meta_eccentricity": 0.00115312,
        "meta_inclination": 86.3786,
        "meta_ra_of_asc_node": 39.7278,
        "meta_arg_of_pericenter": 48.3247,
        "meta_mean_anomaly": 330.1756,
        "meta_ephemeris_type": 0,
        "meta_classification_type": "U",
        "meta_norad_cat_id": 34690,
        "meta_element_set_no": 999,
        "meta_rev_at_epoch": 88003,
        "meta_bstar": 0.00091242052,
        "meta_mean_motion_dot": 3.956e-05,
        "meta_mean_motion_ddot": 0,
        "tle_line1": "1 34690U 97051KM  25340.44331624  .00003956  00000+0  91242-3 0  9998",
        "tle_line2": "2 34690  86.3786  39.7278 0011531  48.3247 330.1756 14.55060659880032"
      },
      "geometry": {
        "type": "Point",
        "coordinates": [
          42.37387490770166,
          37.909931660405036
        ]
      }
    },
    {
      "type": "Feature",
      "properties": {
        "norad_id": 34693,
        "name": "IRIDIUM 33 DEB",
        "group": "iridium-33-debris",
        "lat": 8.659615675862193,
        "lon": -52.695514656443116,
        "alt_km": 483.3257051340415,
        "timestamp": "2025-12-06T20:37:56.460391+00:00",
        "meta_object_name": "IRIDIUM 33 DEB",
        "meta_object_id": "1997-051KQ",
        "meta_epoch": "2025-12-06T08:40:01.085952",
        "meta_mean_motion": 15.25753758,
        "meta_eccentricity": 0.00155045,
        "meta_inclination": 86.306,
        "meta_ra_of_asc_node": 306.9875,
        "meta_arg_of_pericenter": 62.5599,
        "meta_mean_anomaly": 89.6488,
        "meta_ephemeris_type": 0,
        "meta_classification_type": "U",
        "meta_norad_cat_id": 34693,
        "meta_element_set_no": 999,
        "meta_rev_at_epoch": 88817,
        "meta_bstar": 0.0075874268,
        "meta_mean_motion_dot": 0.00199076,
        "meta_mean_motion_ddot": 0,
        "tle_line1": "1 34693U 97051KQ  25340.36112368  .00199076  00000+0  75874-2 0  9995",
        "tle_line2": "2 34693  86.3060 306.9875 0015504  62.5599  89.6488 15.25753758888172"
      },
      "geometry": {
        "type": "Point",
        "coordinates": [
          -52.695514656443116,
          8.659615675862193
        ]
      }
    },
    {
      "type": "Feature",
      "properties": {
        "norad_id": 34696,
        "name": "IRIDIUM 33 DEB",
        "group": "iridium-33-debris",
        "lat": -29.624288835445235,
        "lon": 28.083742586318497,
        "alt_km": 725.9498068476832,
        "timestamp": "2025-12-06T20:37:56.460401+00:00",
        "meta_object_name": "IRIDIUM 33 DEB",
        "meta_object_id": "1997-051KT",
        "meta_epoch": "2025-12-06T02:52:04.787040",
        "meta_mean_motion": 14.64542505,
        "meta_eccentricity": 0.00743833,
        "meta_inclination": 86.1861,
        "meta_ra_of_asc_node": 30.6015,
        "meta_arg_of_pericenter": 190.2321,
        "meta_mean_anomaly": 199.6062,
        "meta_ephemeris_type": 0,
        "meta_classification_type": "U",
        "meta_norad_cat_id": 34696,
        "meta_element_set_no": 999,
        "meta_rev_at_epoch": 86576,
        "meta_bstar": 0.0082420437,
        "meta_mean_motion_dot": 0.00045777,
        "meta_mean_motion_ddot": 0,
        "tle_line1": "1 34696U 97051KT  25340.11949985  .00045777  00000+0  82420-2 0  9997",
        "tle_line2": "2 34696  86.1861  30.6015 0074383 190.2321 199.6062 14.64542505865769"
      },
      "geometry": {
        "type": "Point",
        "coordinates": [
          28.083742586318497,
          -29.624288835445235
        ]
      }
    }
  ]
}